OBJECT_NAME,OBJECT_ID,EPOCH,MEAN_MOTION,ECCENTRICITY,INCLINATION,RA_OF_ASC_NODE,ARG_OF_PERICENTER,MEAN_ANOMALY,EPHEMERIS_TYPE,CLASSIFICATION_TYPE,NORAD_CAT_ID,ELEMENT_SET_NO,REV_AT_EPOCH,BSTAR,MEAN_MOTION_DOT,MEAN_MOTION_DDOT
SUOMI NPP,2011-061A,2026-06-05T05:12:22.805568,14.19514778,.00021642,98.7951,97.1751,32.5180,327.6129,0,U,37849,999,75674,.62839342E-4,.88E-6,0
YAOGAN-12,2011-066B,2026-06-05T06:28:49.522368,15.26442044,.00080057,97.1145,195.3997,267.6002,92.4321,0,U,37875,999,81022,.20628624E-3,.531E-4,0
ARIRANG-3 (KOMPSAT-3),2012-025B,2026-06-05T06:18:09.084096,14.62195204,.00061026,98.1171,113.9289,140.2709,219.8940,0,U,38338,999,74960,.10194044E-3,.467E-5,0
HORYU-2,2012-025D,2026-06-05T02:13:18.932736,14.90991425,.00074889,98.2165,288.5358,214.4509,145.6224,0,U,38340,999,74692,.41018183E-3,.3996E-4,0
CSSWE,2012-048D,2026-06-05T01:14:40.905312,15.43854168,.0049204,64.6614,134.5815,177.5932,182.5452,0,U,38761,999,11452,.5920215E-3,.28097E-3,0
CP5,2012-048F,2026-06-04T11:57:21.196800,15.27485935,.00808111,64.6434,194.5164,180.3434,179.7654,0,U,38763,999,11482,.43637699E-3,.12774E-3,0
METOP-B,2012-049A,2026-06-05T05:21:14.731488,14.21429383,.00028806,98.6509,207.9604,46.7949,313.3468,0,U,38771,999,71156,.71111541E-4,.112E-5,0
SJ-9A,2012-056A,2026-06-05T05:47:59.819712,14.85449148,.00241619,97.6702,128.6260,298.6235,61.2550,0,U,38860,999,69781,.13816557E-3,.1144E-4,0
COSMOS 2484 (RODNIK-S 6),2013-001C,2026-06-05T07:31:28.344000,12.42938752,.00272864,82.5023,229.2738,61.8341,298.5491,0,U,39059,999,60708,.28983449E-3,.5E-6,0
SARAL,2013-009A,2026-06-05T05:44:54.123648,14.32852936,.00013823,98.5557,342.9583,1.4648,358.6540,0,U,39086,999,69389,.44473908E-4,.78E-6,0
AAUSAT 3,2013-009B,2026-06-05T05:29:19.886496,14.39924061,.00102013,98.3700,340.2952,245.4070,114.6056,0,U,39087,999,69545,.22708427E-3,.671E-5,0
STRAND-1,2013-009E,2026-06-05T05:17:12.122016,14.37155907,.00073888,98.3919,336.7495,266.3997,93.6345,0,U,39090,999,69534,.11172E-3,.289E-5,0
BRITE-AUSTRIA,2013-009F,2026-06-05T05:28:18.854400,14.36537135,.00089627,98.3993,335.9601,276.8792,83.1375,0,U,39091,999,69533,.76469003E-4,.182E-5,0
UNIBRITE,2013-009G,2026-06-05T00:43:30.429984,14.36408291,.00078736,98.4031,335.8751,273.6688,86.3598,0,U,39092,999,69524,.82358669E-4,.198E-5,0
AIST-2 (RS43),2013-015D,2026-06-05T06:22:27.408864,15.26162805,.00191151,64.8699,296.3106,246.6339,113.2780,0,U,39133,999,72208,.24690183E-3,.6233E-4,0
GAOFEN-1,2013-018A,2026-06-05T06:30:55.447776,14.76521447,.00160831,97.9094,228.5807,308.5207,51.4561,0,U,39150,999,70648,-.25336493E-4,-.228E-5,0
NEE-01 PEGASO,2013-018B,2026-06-03T11:09:53.669664,14.93586684,.00121772,98.1207,298.1637,203.9081,156.1574,0,U,39151,999,70865,.30779545E-3,.319E-4,0
TURKSAT-3USAT,2013-018C,2026-06-05T01:04:31.253952,14.96345808,.00128751,97.7917,246.9217,137.7520,222.4696,0,U,39152,999,70927,.37609966E-3,.4204E-4,0
CUBEBUG-1 (CAPITAN BETO),2013-018D,2026-06-03T06:25:20.900928,14.97215022,.00113338,98.1668,313.5902,185.6911,174.4183,0,U,39153,999,70898,.38510888E-3,.4398E-4,0
PROBA-V,2013-021A,2026-06-05T04:05:51.499680,14.23594314,.00045582,98.3579,135.3711,152.9510,207.1908,0,U,39159,999,67940,.53001862E-4,.8E-6,0
ESTCUBE 1,2013-021C,2026-06-05T02:29:45.743424,14.81363039,.00094645,97.7291,210.7137,61.0212,299.1948,0,U,39161,999,70323,.23916149E-3,.1819E-4,0
ARIRANG-5 (KOMPSAT-5),2013-042A,2026-06-05T07:51:38.396736,15.04545337,.00038553,97.6204,343.1937,153.8979,206.2442,0,U,39227,999,70207,.15594653E-3,.2125E-4,0
GONETS-M 5,2013-048A,2026-06-05T06:45:54.209952,12.42891626,.00156935,82.4829,350.8062,237.9706,121.9849,0,U,39249,999,57740,.18149464E-3,.35E-6,0
GONETS-M 7,2013-048C,2026-06-05T07:48:47.350656,12.42914345,.00164987,82.4897,353.6950,239.1681,120.7775,0,U,39251,999,57736,-.7952838E-5,.9E-7,0
FENGYUN 3C,2013-052A,2026-06-05T07:29:16.947744,14.15752205,.0015746,98.4981,130.7326,59.8445,300.4287,0,U,39260,999,65688,.68876545E-4,.94E-6,0
CASSIOPE,2013-055A,2026-06-05T03:38:47.663520,15.24099504,.02968135,80.9143,81.3226,102.7680,260.6896,0,U,39265,999,66583,.42960122E-3,.38844E-3,-.622517E-6
APRIZESAT 7,2013-066A,2026-06-05T03:29:38.836896,14.91537995,.00343333,97.7702,109.5389,250.5951,109.1556,0,U,39416,999,67943,.1568522E-3,.1531E-4,0
ZACUBE-1 (TSHEPISOSAT),2013-066B,2026-06-05T03:25:04.005408,15.01107591,.00398966,97.8104,118.4142,290.2475,69.4462,0,U,39417,999,67892,.3881182E-3,.4989E-4,0
APRIZESAT 8,2013-066K,2026-06-04T02:13:28.245792,14.87624717,.0045204,97.8216,102.7439,330.7670,29.1018,0,U,39425,999,67772,.14319275E-3,.1269E-4,0
