ZACUBE
1 39417U 13066B   26156.14240747  .00004989  00000-0  38812-3 0  9994
2 39417  97.8104 118.4142 0039897 290.2475  69.4462 15.01107591678924
0 ESTCUBE 1
1 39161U 13021C   26156.10400166  .00001819  00000-0  23916-3 0  9998
2 39161  97.7291 210.7137 0009465  61.0212 299.1948 14.81363039703239
CUBEBUG-1
1 39153U 13018D   26154.26760302  .00004398  00000-0  38511-3 0  9993
2 39153  98.1668 313.5902 0011334 185.6911 174.4183 14.97215022708980
0 BRITE-A TUGSAT-1
1 39091U 13009F   26156.22799600  .00000182  00000-0  76469-4 0  9997
2 39091  98.3993 335.9601 0008963 276.8792  83.1375 14.36537135695330
0 AAUSAT3
1 39087U 13009B   26156.22870239  .00000671  00000-0  22708-3 0  9999
2 39087  98.3700 340.2952 0010201 245.4070 114.6056 14.39924061695458
0 FENGYUN 3C
1 39260U 13052A   26156.31200171  .00000094  00000-0  68877-4 0  9999
2 39260  98.4981 130.7326 0015746  59.8445 300.4287 14.15752205656880
0 STRAND 1
1 39090U 13009E   26156.22027919  .00000289  00000-0  11172-3 0  9990
2 39090  98.3919 336.7495 0007389 266.3997  93.6345 14.37155907695347
0 HORYU 2
1 38340U 12025D   26156.09258024  .00003996  00000-0  41018-3 0  9992
2 38340  98.2165 288.5358 0007489 214.4509 145.6224 14.90991425746929
0 CASSIOPE
1 39265U 13055A   26156.15194055  .00038844 -62252-6  42960-3 0  9994
2 39265  80.9143  81.3226 0296814 102.7680 260.6896 15.24099504665832
0 NEE 01 PEGASUS
1 39151U 13018B   26154.46520451  .00003190  00000-0  30780-3 0  9991
2 39151  98.1207 298.1637 0012177 203.9081 156.1574 14.93586684708654
0 BRITE-U UNIBRITE
1 39092U 13009G   26156.03021331  .00000198  00000-0  82359-4 0  9998
2 39092  98.4031 335.8751 0007874 273.6688  86.3598 14.36408291695241
0 SARAL
1 39086U 13009A   26156.23951532  .00000078  00000-0  44474-4 0  9991
2 39086  98.5557 342.9583 0001382   1.4648 358.6540 14.32852936693897
0 METOP-B
1 38771U 12049A   26156.22308717  .00000112  00000-0  71112-4 0  9992
2 38771  98.6509 207.9604 0002881  46.7949 313.3468 14.21429383711566
CSSWE
1 38761U 12048D   26156.05186233  .00028097  00000-0  59202-3 0  9995
2 38761  64.6614 134.5815 0049204 177.5932 182.5452 15.43854167114528
CP5
1 38763U 12048F   26155.49816200  .00012774  00000-0  43638-3 0  9999
2 38763  64.6434 194.5164 0080811 180.3434 179.7654 15.27485935114821
0 TURKSAT 3U
1 39152U 13018C   26156.04480618  .00004204  00000-0  37610-3 0  9994
2 39152  97.7917 246.9217 0012875 137.7520 222.4696 14.96345808709275
0 PROBA V
1 39159U 13021A   26156.17073495  .00000080  00000-0  53002-4 0  9992
2 39159  98.3579 135.3711 0004558 152.9510 207.1908 14.23594314679405
0 AIST 2
1 39133U 13015D   26156.26559501  .00006233  00000-0  24690-3 0  9990
2 39133  64.8699 296.3106 0019115 246.6339 113.2780 15.26162805722087
0 APRIZESAT 7
1 39416U 13066A   26156.14558839  .00001531  00000-0  15685-3 0  9990
2 39416  97.7702 109.5389 0034333 250.5951 109.1556 14.91537995679434
0 APRIZESAT 8
1 39425U 13066K   26155.09268803  .00001269  00000-0  14319-3 0  9993
2 39425  97.8216 102.7439 0045204 330.7670  29.1018 14.87624717677722
0 SJ-9A
1 38860U 12056A   26156.24166458  .00001144  00000-0  13817-3 0  9998
2 38860  97.6702 128.6260 0024162 298.6235  61.2550 14.85449148697811
0 NPP
1 37849U 11061A   26156.21693062  .00000088  00000-0  62839-4 0  9997
2 37849  98.7951  97.1751 0002164  32.5180 327.6129 14.19514778756740
0 YAOGAN 12
1 37875U 11066B   26156.27001762  .00005310  00000-0  20629-3 0  9990
2 37875  97.1145 195.3997 0008006 267.6002  92.4321 15.26442044810225
0 KOMPSAT 5
1 39227U 13042A   26156.32752774  .00002125  00000-0  15595-3 0  9998
2 39227  97.6204 343.1937 0003855 153.8979 206.2442 15.04545337702079
0 COSMOS 2484
1 39059U 13001C   26156.31352250  .00000050  00000-0  28983-3 0  9990
2 39059  82.5023 229.2738 0027286  61.8341 298.5491 12.42938752607081
0 GONETS M 05
1 39249U 13048A   26156.28187743  .00000035  00000-0  18149-3 0  9997
2 39249  82.4829 350.8062 0015693 237.9706 121.9849 12.42891626577402
0 GONETS M 07
1 39251U 13048C   26156.32554804  .00000009  00000-0 -79528-5 0  9993
2 39251  82.4897 353.6950 0016499 239.1681 120.7775 12.42914345577362
0 GAOFEN 1
1 39150U 13018A   26156.27147509 -.00000228  00000-0 -25336-4 0  9993
2 39150  97.9094 228.5807 0016083 308.5207  51.4561 14.76521447706481
0 KOMPSAT 3
1 38338U 12025B   26156.26260514  .00000467  00000-0  10194-3 0  9996
2 38338  98.1171 113.9289 0006103 140.2709 219.8940 14.62195204749603
